RASSVET-3 16            
1 68375U 26061R   26101.87221865  .00065323  00000+0  29071-3 0  9993
2 68375  82.2945  87.0281 0021445  10.6907 349.4813 15.83715600  3041
SUPERVIEW NEO-2 OBJECT A
1 68377U 26062A   26101.91191429  .00002447  00000+0  11761-3 0  9998
2 68377  97.4380 110.1634 0004190 185.6240 174.4948 15.19749369  2586
SUPERVIEW NEO-2 OBJECT B
1 68378U 26062B   26101.84577751  .00002390  00000+0  11496-3 0  9999
2 68378  97.4356 110.0948 0006538 199.0846 161.0145 15.19745533  2575
STARLINK-36296          
1 68380U 26063A   26100.73957971 -.02849802  00000+0 -80361-2 0  9993
2 68380  97.2786 242.1830 0018210 282.8135  77.1104 15.94354520  2692
STARLINK-37111          
1 68381U 26063B   26101.87837778  .00113578  00000+0  58478-3 0  9997
2 68381  97.2837 243.2584 0001931 109.0788 251.0690 15.80860916  2862
STARLINK-36946          
1 68382U 26063C   26101.87762406  .00131981  00000+0  67786-3 0  9993
2 68382  97.2838 243.2589 0001568  61.0039 299.1387 15.80865465  2861
STARLINK-37121          
1 68383U 26063D   26101.81282122  .00129203  00000+0  66388-3 0  9991
2 68383  97.2834 243.1947 0001768  75.4297 284.7167 15.80863081  2859
STARLINK-37137          
1 68384U 26063E   26101.83334491 -.00000608  00000+0 -32048-5 0  9998
2 68384  97.2845 243.1869 0001384 114.8401 293.6066 15.75187110  3780
STARLINK-37128          
1 68385U 26063F   26101.87536938  .00100340  00000+0  51765-3 0  9990
2 68385  97.2835 243.2629 0001179  79.6900 280.4501 15.80855399  2862
STARLINK-37198          
1 68386U 26063G   26101.81131514  .00142771  00000+0  73214-3 0  9993
2 68386  97.2834 243.1963 0001138  90.5305 269.6094 15.80870651  2851
STARLINK-37223          
1 68387U 26063H   26101.87386788  .00104288  00000+0  53773-3 0  9994
2 68387  97.2836 243.2644 0002215  52.8949 307.2521 15.80854122  2863
STARLINK-37203          
1 68388U 26063J   26101.80981326  .00222822  00000+0  11304-2 0  9995
2 68388  97.2834 243.1985 0001225  82.7422 277.3986 15.80897046  2850
STARLINK-37197          
1 68389U 26063K   26101.83334491 -.00002012  00000+0 -12621-4 0  9998
2 68389  97.2846 243.2024 0001442  90.3291 354.1027 15.75196840  3780
STARLINK-37193          
1 68390U 26063L   26101.83334491 -.01764313  00000+0 -72479-2 0  9995
2 68390  97.2721 243.4460 0001444  83.5306 210.9709 15.88847797  2124
STARLINK-37216          
1 68391U 26063M   26101.80755744  .00128587  00000+0  66032-3 0  9994
2 68391  97.2832 243.2022 0001363  85.8887 274.2537 15.80878290  2855
