[{"OBJECT_NAME":"RASSVET-3 16","OBJECT_ID":"2026-061R","EPOCH":"2026-04-11T20:55:59.691360","MEAN_MOTION":15.837156,"ECCENTRICITY":0.0021445,"INCLINATION":82.2945,"RA_OF_ASC_NODE":87.0281,"ARG_OF_PERICENTER":10.6907,"MEAN_ANOMALY":349.4813,"EPHEMERIS_TYPE":0,"CLASSIFICATION_TYPE":"U","NORAD_CAT_ID":68375,"ELEMENT_SET_NO":999,"REV_AT_EPOCH":304,"BSTAR":0.00029071,"MEAN_MOTION_DOT":0.00065323,"MEAN_MOTION_DDOT":0},{"OBJECT_NAME":"SUPERVIEW NEO-2 OBJECT A","OBJECT_ID":"2026-062A","EPOCH":"2026-04-11T21:53:09.394656","MEAN_MOTION":15.19749369,"ECCENTRICITY":0.000419,"INCLINATION":97.438,"RA_OF_ASC_NODE":110.1634,"ARG_OF_PERICENTER":185.624,"MEAN_ANOMALY":174.4948,"EPHEMERIS_TYPE":0,"CLASSIFICATION_TYPE":"U","NORAD_CAT_ID":68377,"ELEMENT_SET_NO":999,"REV_AT_EPOCH":258,"BSTAR":0.00011761,"MEAN_MOTION_DOT":2.447e-5,"MEAN_MOTION_DDOT":0},{"OBJECT_NAME":"SUPERVIEW NEO-2 OBJECT B","OBJECT_ID":"2026-062B","EPOCH":"2026-04-11T20:17:55.176864","MEAN_MOTION":15.19745533,"ECCENTRICITY":0.0006538,"INCLINATION":97.4356,"RA_OF_ASC_NODE":110.0948,"ARG_OF_PERICENTER":199.0846,"MEAN_ANOMALY":161.0145,"EPHEMERIS_TYPE":0,"CLASSIFICATION_TYPE":"U","NORAD_CAT_ID":68378,"ELEMENT_SET_NO":999,"REV_AT_EPOCH":257,"BSTAR":0.00011496,"MEAN_MOTION_DOT":2.39e-5,"MEAN_MOTION_DDOT":0},{"OBJECT_NAME":"STARLINK-36296","OBJECT_ID":"2026-063A","EPOCH":"2026-04-10T17:44:59.686944","MEAN_MOTION":15.9435452,"ECCENTRICITY":0.00182103,"INCLINATION":97.2786,"RA_OF_ASC_NODE":242.183,"ARG_OF_PERICENTER":282.8135,"MEAN_ANOMALY":77.1104,"EPHEMERIS_TYPE":0,"CLASSIFICATION_TYPE":"U","NORAD_CAT_ID":68380,"ELEMENT_SET_NO":999,"REV_AT_EPOCH":269,"BSTAR":-0.0080360899,"MEAN_MOTION_DOT":-0.02849802,"MEAN_MOTION_DDOT":0},{"OBJECT_NAME":"STARLINK-37111","OBJECT_ID":"2026-063B","EPOCH":"2026-04-11T21:04:51.840192","MEAN_MOTION":15.80860916,"ECCENTRICITY":0.0001931,"INCLINATION":97.2837,"RA_OF_ASC_NODE":243.2584,"ARG_OF_PERICENTER":109.0788,"MEAN_ANOMALY":251.069,"EPHEMERIS_TYPE":0,"CLASSIFICATION_TYPE":"U","NORAD_CAT_ID":68381,"ELEMENT_SET_NO":999,"REV_AT_EPOCH":286,"BSTAR":0.00058478,"MEAN_MOTION_DOT":0.00113578,"MEAN_MOTION_DDOT":0},{"OBJECT_NAME":"STARLINK-36946","OBJECT_ID":"2026-063C","EPOCH":"2026-04-11T21:03:46.718784","MEAN_MOTION":15.80865465,"ECCENTRICITY":0.0001568,"INCLINATION":97.2838,"RA_OF_ASC_NODE":243.2589,"ARG_OF_PERICENTER":61.0039,"MEAN_ANOMALY":299.1387,"EPHEMERIS_TYPE":0,"CLASSIFICATION_TYPE":"U","NORAD_CAT_ID":68382,"ELEMENT_SET_NO":999,"REV_AT_EPOCH":286,"BSTAR":0.00067786,"MEAN_MOTION_DOT":0.00131981,"MEAN_MOTION_DDOT":0},{"OBJECT_NAME":"STARLINK-37121","OBJECT_ID":"2026-063D","EPOCH":"2026-04-11T19:30:27.753408","MEAN_MOTION":15.80863081,"ECCENTRICITY":0.0001768,"INCLINATION":97.2834,"RA_OF_ASC_NODE":243.1947,"ARG_OF_PERICENTER":75.4297,"MEAN_ANOMALY":284.7167,"EPHEMERIS_TYPE":0,"CLASSIFICATION_TYPE":"U","NORAD_CAT_ID":68383,"ELEMENT_SET_NO":999,"REV_AT_EPOCH":285,"BSTAR":0.00066388,"MEAN_MOTION_DOT":0.00129203,"MEAN_MOTION_DDOT":0},{"OBJECT_NAME":"STARLINK-37137","OBJECT_ID":"2026-063E","EPOCH":"2026-04-11T20:00:01.000224","MEAN_MOTION":15.7518711,"ECCENTRICITY":0.0001384,"INCLINATION":97.2845,"RA_OF_ASC_NODE":243.1869,"ARG_OF_PERICENTER":114.8401,"MEAN_ANOMALY":293.6066,"EPHEMERIS_TYPE":0,"CLASSIFICATION_TYPE":"U","NORAD_CAT_ID":68384,"ELEMENT_SET_NO":999,"REV_AT_EPOCH":378,"BSTAR":-3.2048e-6,"MEAN_MOTION_DOT":-6.08e-6,"MEAN_MOTION_DDOT":0},{"OBJECT_NAME":"STARLINK-37128","OBJECT_ID":"2026-063F","EPOCH":"2026-04-11T21:00:31.914432","MEAN_MOTION":15.80855399,"ECCENTRICITY":0.0001179,"INCLINATION":97.2835,"RA_OF_ASC_NODE":243.2629,"ARG_OF_PERICENTER":79.69,"MEAN_ANOMALY":280.4501,"EPHEMERIS_TYPE":0,"CLASSIFICATION_TYPE":"U","NORAD_CAT_ID":68385,"ELEMENT_SET_NO":999,"REV_AT_EPOCH":286,"BSTAR":0.00051765,"MEAN_MOTION_DOT":0.0010034,"MEAN_MOTION_DDOT":0},{"OBJECT_NAME":"STARLINK-37198","OBJECT_ID":"2026-063G","EPOCH":"2026-04-11T19:28:17.628096","MEAN_MOTION":15.80870651,"ECCENTRICITY":0.0001138,"INCLINATION":97.2834,"RA_OF_ASC_NODE":243.1963,"ARG_OF_PERICENTER":90.5305,"MEAN_ANOMALY":269.6094,"EPHEMERIS_TYPE":0,"CLASSIFICATION_TYPE":"U","NORAD_CAT_ID":68386,"ELEMENT_SET_NO":999,"REV_AT_EPOCH":285,"BSTAR":0.00073214,"MEAN_MOTION_DOT":0.00142771,"MEAN_MOTION_DDOT":0},{"OBJECT_NAME":"STARLINK-37223","OBJECT_ID":"2026-063H","EPOCH":"2026-04-11T20:58:22.184832","MEAN_MOTION":15.80854122,"ECCENTRICITY":0.0002215,"INCLINATION":97.2836,"RA_OF_ASC_NODE":243.2644,"ARG_OF_PERICENTER":52.8949,"MEAN_ANOMALY":307.2521,"EPHEMERIS_TYPE":0,"CLASSIFICATION_TYPE":"U","NORAD_CAT_ID":68387,"ELEMENT_SET_NO":999,"REV_AT_EPOCH":286,"BSTAR":0.00053773,"MEAN_MOTION_DOT":0.00104288,"MEAN_MOTION_DDOT":0},{"OBJECT_NAME":"STARLINK-37203","OBJECT_ID":"2026-063J","EPOCH":"2026-04-11T19:26:07.865664","MEAN_MOTION":15.80897046,"ECCENTRICITY":0.0001225,"INCLINATION":97.2834,"RA_OF_ASC_NODE":243.1985,"ARG_OF_PERICENTER":82.7422,"MEAN_ANOMALY":277.3986,"EPHEMERIS_TYPE":0,"CLASSIFICATION_TYPE":"U","NORAD_CAT_ID":68388,"ELEMENT_SET_NO":999,"REV_AT_EPOCH":285,"BSTAR":0.0011304,"MEAN_MOTION_DOT":0.00222822,"MEAN_MOTION_DDOT":0},{"OBJECT_NAME":"STARLINK-37197","OBJECT_ID":"2026-063K","EPOCH":"2026-04-11T20:00:01.000224","MEAN_MOTION":15.7519684,"ECCENTRICITY":0.0001442,"INCLINATION":97.2846,"RA_OF_ASC_NODE":243.2024,"ARG_OF_PERICENTER":90.3291,"MEAN_ANOMALY":354.1027,"EPHEMERIS_TYPE":0,"CLASSIFICATION_TYPE":"U","NORAD_CAT_ID":68389,"ELEMENT_SET_NO":999,"REV_AT_EPOCH":378,"BSTAR":-1.2621e-5,"MEAN_MOTION_DOT":-2.012e-5,"MEAN_MOTION_DDOT":0},{"OBJECT_NAME":"STARLINK-37193","OBJECT_ID":"2026-063L","EPOCH":"2026-04-11T20:00:01.000224","MEAN_MOTION":15.88847797,"ECCENTRICITY":0.0001444,"INCLINATION":97.2721,"RA_OF_ASC_NODE":243.446,"ARG_OF_PERICENTER":83.5306,"MEAN_ANOMALY":210.9709,"EPHEMERIS_TYPE":0,"CLASSIFICATION_TYPE":"U","NORAD_CAT_ID":68390,"ELEMENT_SET_NO":999,"REV_AT_EPOCH":212,"BSTAR":-0.0072479,"MEAN_MOTION_DOT":-0.01764313,"MEAN_MOTION_DDOT":0},{"OBJECT_NAME":"STARLINK-37216","OBJECT_ID":"2026-063M","EPOCH":"2026-04-11T19:22:52.962816","MEAN_MOTION":15.8087829,"ECCENTRICITY":0.0001363,"INCLINATION":97.2832,"RA_OF_ASC_NODE":243.2022,"ARG_OF_PERICENTER":85.8887,"MEAN_ANOMALY":274.2537,"EPHEMERIS_TYPE":0,"CLASSIFICATION_TYPE":"U","NORAD_CAT_ID":68391,"ELEMENT_SET_NO":999,"REV_AT_EPOCH":285,"BSTAR":0.00066032,"MEAN_MOTION_DOT":0.00128587,"MEAN_MOTION_DDOT":0}]
